{
    "links": {
        "self": "http://www.neowsapp.com/rest/v1/neo/3739264?api_key=iIulBulltgU6a56xZRHN4H3l9WmuAYTsLGpBGhQ2"
    },
    "id": "3739264",
    "neo_reference_id": "3739264",
    "name": "(2016 AU9)",
    "designation": "2016 AU9",
    "nasa_jpl_url": "http://ssd.jpl.nasa.gov/sbdb.cgi?sstr=3739264",
    "absolute_magnitude_h": 25.4,
    "estimated_diameter": {
        "kilometers": {
            "estimated_diameter_min": 0.022108281,
            "estimated_diameter_max": 0.0494356193
        },
        "meters": {
            "estimated_diameter_min": 22.1082810359,
            "estimated_diameter_max": 49.435619262
        },
        "miles": {
            "estimated_diameter_min": 0.0137374447,
            "estimated_diameter_max": 0.0307178602
        },
        "feet": {
            "estimated_diameter_min": 72.5337327539,
            "estimated_diameter_max": 162.1903570994
        }
    },
    "is_potentially_hazardous_asteroid": false,
    "close_approach_data": [
        {
            "close_approach_date": "2016-01-05",
            "close_approach_date_full": "2016-Jan-05 17:21",
            "epoch_date_close_approach": 1452014460000,
            "relative_velocity": {
                "kilometers_per_second": "5.2280112617",
                "kilometers_per_hour": "18820.8405421157",
                "miles_per_hour": "11694.5383912941"
            },
            "miss_distance": {
                "astronomical": "0.0759702532",
                "lunar": "29.5524284948",
                "kilometers": "11364988.062080684",
                "miles": "7061876.1182300792"
            },
            "orbiting_body": "Earth"
        }
    ],
    "orbital_data": {
        "orbit_id": "7",
        "orbit_determination_date": "2017-04-06 08:29:23",
        "first_observation_date": "2016-01-05",
        "last_observation_date": "2016-02-05",
        "data_arc_in_days": 31,
        "observations_used": 23,
        "orbit_uncertainty": "8",
        "minimum_orbit_intersection": ".0756785",
        "jupiter_tisserand_invariant": "3.554",
        "epoch_osculation": "2457395.5",
        "eccentricity": ".5016100176969426",
        "semi_major_axis": "2.124871832977666",
        "inclination": "1.150600739049884",
        "ascending_node_longitude": "103.1577277670566",
        "orbital_period": "1131.351446024762",
        "perihelion_distance": "1.059014835234004",
        "perihelion_argument": "2.695844377636378",
        "aphelion_distance": "3.190728830721327",
        "perihelion_time": "2457394.076301762611",
        "mean_anomaly": ".4530257748473521",
        "mean_motion": ".3182035089670276",
        "equinox": "J2000",
        "orbit_class": {
            "orbit_class_type": "AMO",
            "orbit_class_description": "Near-Earth asteroid orbits similar to that of 1221 Amor",
            "orbit_class_range": "1.017 AU < q (perihelion) < 1.3 AU"
        }
    },
    "is_sentry_object": false
}